0 ATLAS 41E DEB
1 15614U 85021D   13281.84892045  .00000670  00000-0  15317-3 0  7449
2 15614 108.2240 359.4922 0016253 000.7040 066.2096 14.65508406515995
0 ATLAS 41E DEB
1 15614U 85021D   13284.16331876  .00000846  00000-0  18548-3 0  7452
2 15614 108.2242 004.5586 0016434 356.5300 036.6273 14.65515489516339
0 ATLAS 41E DEB
1 15614U 85021D   13286.50225244  .00000728  00000-0  16387-3 0  7462
2 15614 108.2243 009.6790 0016593 352.3293 136.5189 14.65519296516677
0 ATLAS 41E DEB
1 15614U 85021D   13288.81304381  .00001170  00000-0  24482-3 0  7476
2 15614 108.2241 014.7378 0016751 348.3137 087.8429 14.65525968517019
0 ATLAS 41E DEB
1 15614U 85021D   13290.92571563  .00001136  00000-0  23863-3 0  7484
2 15614 108.2237 019.3630 0016909 344.6539 073.9611 14.65532154517324
0 ATLAS 41E DEB
1 15614U 85021D   13292.97287981  .00001330  00000-0  27422-3 0  7491
2 15614 108.2234 023.8447 0017074 341.1201 074.5030 14.65536321517624
0 ATLAS 41E DEB
1 15614U 85021D   13295.16824428  .00001368  00000-0  28105-3 0  7500
2 15614 108.2232 028.6508 0017220 337.4328 136.8647 14.65542875517946
